{
  "type": "FeatureCollection",
  "features": [
    {
      "type": "Feature",
      "properties": {
        "norad_id": 66450,
        "name": "STARLINK-35334",
        "group": "last-30-days",
        "lat": 38.12585700289306,
        "lon": 147.03675227260206,
        "alt_km": 410.0259560983877,
        "timestamp": "2025-12-05T11:32:54.808987+00:00",
        "meta_object_name": "STARLINK-35334",
        "meta_object_id": "2025-259AE",
        "meta_epoch": "2025-12-04T18:00:02.000160",
        "meta_mean_motion": 15.50578612,
        "meta_eccentricity": 0.0001705,
        "meta_inclination": 43.0006,
        "meta_ra_of_asc_node": 93.94,
        "meta_arg_of_pericenter": 278.5593,
        "meta_mean_anomaly": 20.1132,
        "meta_ephemeris_type": 0,
        "meta_classification_type": "U",
        "meta_norad_cat_id": 66450,
        "meta_element_set_no": 999,
        "meta_rev_at_epoch": 499,
        "meta_bstar": -0.00062922,
        "meta_mean_motion_dot": -0.00037081,
        "meta_mean_motion_ddot": 0,
        "tle_line1": "1 66450U 25259AE  25338.75002315 -.00037081  00000+0 -62922-3 0  9992",
        "tle_line2": "2 66450  43.0006  93.9400 0001705 278.5593  20.1132 15.50578612  4994"
      },
      "geometry": {
        "type": "Point",
        "coordinates": [
          147.03675227260206,
          38.12585700289306
        ]
      }
    },
    {
      "type": "Feature",
      "properties": {
        "norad_id": 66454,
        "name": "VIASAT-3 F2",
        "group": "last-30-days",
        "lat": 5.338446645273876,
        "lon": 40.09852720993964,
        "alt_km": 15536.511401515556,
        "timestamp": "2025-12-05T11:32:54.809001+00:00",
        "meta_object_name": "VIASAT-3 F2",
        "meta_object_id": "2025-261A",
        "meta_epoch": "2025-12-04T01:07:27.782112",
        "meta_mean_motion": 2.28102609,
        "meta_eccentricity": 0.23421394,
        "meta_inclination": 5.5724,
        "meta_ra_of_asc_node": 293.1352,
        "meta_arg_of_pericenter": 184.2254,
        "meta_mean_anomaly": 209.6829,
        "meta_ephemeris_type": 0,
        "meta_classification_type": "U",
        "meta_norad_cat_id": 66454,
        "meta_element_set_no": 999,
        "meta_rev_at_epoch": 45,
        "meta_bstar": 0,
        "meta_mean_motion_dot": -5.6e-07,
        "meta_mean_motion_ddot": 0,
        "tle_line1": "1 66454U 25261A   25338.04684933 -.00000056  00000+0  00000+0 0  9999",
        "tle_line2": "2 66454   5.5724 293.1352 2342139 184.2254 209.6829  2.28102609   450"
      },
      "geometry": {
        "type": "Point",
        "coordinates": [
          40.09852720993964,
          5.338446645273876
        ]
      }
    },
    {
      "type": "Feature",
      "properties": {
        "norad_id": 66455,
        "name": "ATLAS 5 CENTAUR R/B",
        "group": "last-30-days",
        "lat": 6.08975852735315,
        "lon": 31.517972335563137,
        "alt_km": 16274.509585116815,
        "timestamp": "2025-12-05T11:32:54.809013+00:00",
        "meta_object_name": "ATLAS 5 CENTAUR R/B",
        "meta_object_id": "2025-261B",
        "meta_epoch": "2025-12-04T12:52:51.619584",
        "meta_mean_motion": 2.28259385,
        "meta_eccentricity": 0.23296099,
        "meta_inclination": 6.1565,
        "meta_ra_of_asc_node": 292.4364,
        "meta_arg_of_pericenter": 184.835,
        "meta_mean_anomaly": 244.04,
        "meta_ephemeris_type": 0,
        "meta_classification_type": "U",
        "meta_norad_cat_id": 66455,
        "meta_element_set_no": 999,
        "meta_rev_at_epoch": 46,
        "meta_bstar": 0,
        "meta_mean_motion_dot": -5.9e-07,
        "meta_mean_motion_ddot": 0,
        "tle_line1": "1 66455U 25261B   25338.53670856 -.00000059  00000+0  00000+0 0  9996",
        "tle_line2": "2 66455   6.1565 292.4364 2329609 184.8350 244.0400  2.28259385   469"
      },
      "geometry": {
        "type": "Point",
        "coordinates": [
          31.517972335563137,
          6.08975852735315
        ]
      }
    },
    {
      "type": "Feature",
      "properties": {
        "norad_id": 66456,
        "name": "STARLINK-35643",
        "group": "last-30-days",
        "lat": 41.69762421528905,
        "lon": -139.3739413375316,
        "alt_km": 409.77232624008775,
        "timestamp": "2025-12-05T11:32:54.809026+00:00",
        "meta_object_name": "STARLINK-35643",
        "meta_object_id": "2025-262A",
        "meta_epoch": "2025-12-04T18:00:02.000160",
        "meta_mean_motion": 15.53907459,
        "meta_eccentricity": 0.0001647,
        "meta_inclination": 42.9996,
        "meta_ra_of_asc_node": 117.8667,
        "meta_arg_of_pericenter": 276.5037,
        "meta_mean_anomaly": 55.4482,
        "meta_ephemeris_type": 0,
        "meta_classification_type": "U",
        "meta_norad_cat_id": 66456,
        "meta_element_set_no": 999,
        "meta_rev_at_epoch": 435,
        "meta_bstar": -0.036249,
        "meta_mean_motion_dot": -0.02128277,
        "meta_mean_motion_ddot": 0,
        "tle_line1": "1 66456U 25262A   25338.75002315 -.02128277  00000+0 -36249-1 0  9993",
        "tle_line2": "2 66456  42.9996 117.8667 0001647 276.5037  55.4482 15.53907459  4350"
      },
      "geometry": {
        "type": "Point",
        "coordinates": [
          -139.3739413375316,
          41.69762421528905
        ]
      }
    },
    {
      "type": "Feature",
      "properties": {
        "norad_id": 66457,
        "name": "STARLINK-35466",
        "group": "last-30-days",
        "lat": 40.8237353195976,
        "lon": -134.41780429520026,
        "alt_km": 409.84832975303016,
        "timestamp": "2025-12-05T11:32:54.809036+00:00",
        "meta_object_name": "STARLINK-35466",
        "meta_object_id": "2025-262B",
        "meta_epoch": "2025-12-04T18:00:02.000160",
        "meta_mean_motion": 15.53909178,
        "meta_eccentricity": 0.0001541,
        "meta_inclination": 42.9995,
        "meta_ra_of_asc_node": 117.8571,
        "meta_arg_of_pericenter": 276.3079,
        "meta_mean_anomaly": 59.4789,
        "meta_ephemeris_type": 0,
        "meta_classification_type": "U",
        "meta_norad_cat_id": 66457,
        "meta_element_set_no": 999,
        "meta_rev_at_epoch": 435,
        "meta_bstar": -0.03633,
        "meta_mean_motion_dot": -0.02132536,
        "meta_mean_motion_ddot": 0,
        "tle_line1": "1 66457U 25262B   25338.75002315 -.02132536  00000+0 -36330-1 0  9998",
        "tle_line2": "2 66457  42.9995 117.8571 0001541 276.3079  59.4789 15.53909178  4355"
      },
      "geometry": {
        "type": "Point",
        "coordinates": [
          -134.41780429520026,
          40.8237353195976
        ]
      }
    },
    {
      "type": "Feature",
      "properties": {
        "norad_id": 66458,
        "name": "STARLINK-35684",
        "group": "last-30-days",
        "lat": 41.28820343258356,
        "lon": -136.88369068450652,
        "alt_km": 409.78403701371826,
        "timestamp": "2025-12-05T11:32:54.809046+00:00",
        "meta_object_name": "STARLINK-35684",
        "meta_object_id": "2025-262C",
        "meta_epoch": "2025-12-04T18:00:02.000160",
        "meta_mean_motion": 15.53910345,
        "meta_eccentricity": 0.0001546,
        "meta_inclination": 42.9997,
        "meta_ra_of_asc_node": 117.8614,
        "meta_arg_of_pericenter": 275.678,
        "meta_mean_anomaly": 58.1912,
        "meta_ephemeris_type": 0,
        "meta_classification_type": "U",
        "meta_norad_cat_id": 66458,
        "meta_element_set_no": 999,
        "meta_rev_at_epoch": 435,
        "meta_bstar": -0.036354,
        "meta_mean_motion_dot": -0.02133882,
        "meta_mean_motion_ddot": 0,
        "tle_line1": "1 66458U 25262C   25338.75002315 -.02133882  00000+0 -36354-1 0  9990",
        "tle_line2": "2 66458  42.9997 117.8614 0001546 275.6780  58.1912 15.53910345  4354"
      },
      "geometry": {
        "type": "Point",
        "coordinates": [
          -136.88369068450652,
          41.28820343258356
        ]
      }
    },
    {
      "type": "Feature",
      "properties": {
        "norad_id": 66459,
        "name": "STARLINK-35449",
        "group": "last-30-days",
        "lat": 40.308981548980846,
        "lon": -131.99480843511276,
        "alt_km": 409.929303668966,
        "timestamp": "2025-12-05T11:32:54.809056+00:00",
        "meta_object_name": "STARLINK-35449",
        "meta_object_id": "2025-262D",
        "meta_epoch": "2025-12-04T18:00:02.000160",
        "meta_mean_motion": 15.53915343,
        "meta_eccentricity": 0.0001517,
        "meta_inclination": 42.9996,
        "meta_ra_of_asc_node": 117.8521,
        "meta_arg_of_pericenter": 277.998,
        "meta_mean_anomaly": 59.7014,
        "meta_ephemeris_type": 0,
        "meta_classification_type": "U",
        "meta_norad_cat_id": 66459,
        "meta_element_set_no": 999,
        "meta_rev_at_epoch": 435,
        "meta_bstar": -0.036464,
        "meta_mean_motion_dot": -0.02139936,
        "meta_mean_motion_ddot": 0,
        "tle_line1": "1 66459U 25262D   25338.75002315 -.02139936  00000+0 -36464-1 0  9999",
        "tle_line2": "2 66459  42.9996 117.8521 0001517 277.9980  59.7014 15.53915343  4359"
      },
      "geometry": {
        "type": "Point",
        "coordinates": [
          -131.99480843511276,
          40.308981548980846
        ]
      }
    }
  ]
}